[Satellite]
VERSION=1.1
NAME=COSMOS 1500
NICKNAME=COSMOS 1500
TLE1=1 14372U 83099A   18020.86980399  .00000785  00000-0  37041-4 0  9998
TLE2=2 14372  82.5167 128.4354 0016539  53.2047  86.2818 15.17831975870511
